0 COSMOS 1931
1 18944U 88016H   13280.84960911 -.00000026  00000-0 -52540-4 0  2657
2 18944 074.0044 152.3166 0040778 242.0301 200.5367 12.58496126175199
0 COSMOS 1931
1 18944U 88016H   13283.09417063  .00000009  00000-0  15001-3 0  2662
2 18944 074.0042 149.2820 0040722 238.6144 289.7105 12.58495745175470
0 COSMOS 1931
1 18944U 88016H   13287.84015823  .00000010  00000-0  15387-3 0  2688
2 18944 074.0032 142.8649 0040667 231.4982 191.6928 12.58496023176077
0 COSMOS 1931
1 18944U 88016H   13290.16003259 -.00000025  00000-0 -50705-4 0  2690
2 18944 074.0030 139.7280 0040623 228.0029 262.0408 12.58496377176367
0 COSMOS 1931
1 18944U 88016H   13292.51893733 -.00000033  00000-0 -96193-4 0  2707
2 18944 074.0030 136.5384 0040585 224.3988 149.2720 12.58496396176664
0 COSMOS 1931
1 18944U 88016H   13294.75984598 -.00000015  00000-0  71284-5 0  2710
2 18944 074.0030 133.5082 0040565 221.0133 221.8748 12.58496190176940
